{
"type": "FeatureCollection",
"name": "crossings",
"crs": { "type": "name", "properties": { "name": "urn:ogc:def:crs:OGC:1.3:CRS84" } },
"features": [
{ "type": "Feature", "properties": { "name": "Albița", "waiting_time_min": 19.0, "direction": "intrare" }, "geometry": { "type": "Point", "coordinates": [ 28.138904570000022, 46.78513359 ] } },
{ "type": "Feature", "properties": { "name": "Bumbăta", "waiting_time_min": 15.0, "direction": "intrare" }, "geometry": { "type": "Point", "coordinates": [ 28.230584720334427, 46.483430715285358 ] } },
{ "type": "Feature", "properties": { "name": "Foeni", "waiting_time_min": 10.0, "direction": "intrare" }, "geometry": { "type": "Point", "coordinates": [ 20.851687687642386, 45.474014530182124 ] } },
{ "type": "Feature", "properties": { "name": "Galați", "waiting_time_min": 32.0, "direction": "intrare" }, "geometry": { "type": "Point", "coordinates": [ 28.188611261901883, 45.46825360262536 ] } },
{ "type": "Feature", "properties": { "name": "Halmeu", "waiting_time_min": 30.0, "direction": "intrare" }, "geometry": { "type": "Point", "coordinates": [ 23.003118041472135, 47.992183438078662 ] } },
{ "type": "Feature", "properties": { "name": "Isaccea", "waiting_time_min": 60.0, "direction": "intrare" }, "geometry": { "type": "Point", "coordinates": [ 28.453399, 45.2838718 ] } },
{ "type": "Feature", "properties": { "name": "Jimbolia", "waiting_time_min": 10.0, "direction": "intrare" }, "geometry": { "type": "Point", "coordinates": [ 20.701192614762022, 45.752204590460479 ] } },
{ "type": "Feature", "properties": { "name": "Lunga", "waiting_time_min": 10.0, "direction": "intrare" }, "geometry": { "type": "Point", "coordinates": [ 20.5779074132906, 45.879155705999672 ] } },
{ "type": "Feature", "properties": { "name": "Moldova Nouă", "waiting_time_min": 10.0, "direction": "intrare" }, "geometry": { "type": "Point", "coordinates": [ 21.647974408926814, 44.708744246737496 ] } },
{ "type": "Feature", "properties": { "name": "Moravița", "waiting_time_min": 10.0, "direction": "intrare" }, "geometry": { "type": "Point", "coordinates": [ 21.271795037033144, 45.23273831114173 ] } },
{ "type": "Feature", "properties": { "name": "Naidăș", "waiting_time_min": 10.0, "direction": "intrare" }, "geometry": { "type": "Point", "coordinates": [ 21.562149521188644, 44.901388694204627 ] } },
{ "type": "Feature", "properties": { "name": "Oancea", "waiting_time_min": 39.0, "direction": "intrare" }, "geometry": { "type": "Point", "coordinates": [ 28.11879872999998, 45.91761677 ] } },
{ "type": "Feature", "properties": { "name": "Porțile de Fier I", "waiting_time_min": 10.0, "direction": "intrare" }, "geometry": { "type": "Point", "coordinates": [ 22.532792683467051, 44.675477664808263 ] } },
{ "type": "Feature", "properties": { "name": "Porțile de Fier II", "waiting_time_min": 10.0, "direction": "intrare" }, "geometry": { "type": "Point", "coordinates": [ 22.569930550429717, 44.309086364909426 ] } },
{ "type": "Feature", "properties": { "name": "Racovăț", "waiting_time_min": 20.0, "direction": "intrare" }, "geometry": { "type": "Point", "coordinates": [ 26.281062, 48.099012 ] } },
{ "type": "Feature", "properties": { "name": "Rădăuți Prut", "waiting_time_min": 15.0, "direction": "intrare" }, "geometry": { "type": "Point", "coordinates": [ 26.803089363021854, 48.252499210733916 ] } },
{ "type": "Feature", "properties": { "name": "Sculeni", "waiting_time_min": 39.0, "direction": "intrare" }, "geometry": { "type": "Point", "coordinates": [ 27.610375267906193, 47.316164005499722 ] } },
{ "type": "Feature", "properties": { "name": "Sighetu Marmației", "waiting_time_min": 10.0, "direction": "intrare" }, "geometry": { "type": "Point", "coordinates": [ 23.877535179831739, 47.938771834787026 ] } },
{ "type": "Feature", "properties": { "name": "Siret", "waiting_time_min": 40.0, "direction": "intrare" }, "geometry": { "type": "Point", "coordinates": [ 26.062595845606666, 47.986360069999989 ] } },
{ "type": "Feature", "properties": { "name": "Stînca", "waiting_time_min": 15.0, "direction": "intrare" }, "geometry": { "type": "Point", "coordinates": [ 27.220108505344228, 47.833497321297024 ] } },
{ "type": "Feature", "properties": { "name": "Valcani", "waiting_time_min": 10.0, "direction": "intrare" }, "geometry": { "type": "Point", "coordinates": [ 20.361915707284922, 45.992469691259394 ] } },
{ "type": "Feature", "properties": { "name": "Vicovu de Sus", "waiting_time_min": 10.0, "direction": "intrare" }, "geometry": { "type": "Point", "coordinates": [ 25.62072, 47.946829 ] } },
{ "type": "Feature", "properties": { "name": "Giurgiu", "waiting_time_min": null, "direction": null }, "geometry": { "type": "Point", "coordinates": [ 26.0038, 43.8875 ] } },
{ "type": "Feature", "properties": { "name": "Vama Veche", "waiting_time_min": null, "direction": null }, "geometry": { "type": "Point", "coordinates": [ 28.5588, 43.7385 ] } },
{ "type": "Feature", "properties": { "name": "Ostrov", "waiting_time_min": null, "direction": null }, "geometry": { "type": "Point", "coordinates": [ 27.369, 44.1155 ] } },
{ "type": "Feature", "properties": { "name": "Negru Vodă", "waiting_time_min": null, "direction": null }, "geometry": { "type": "Point", "coordinates": [ 28.202, 43.801 ] } },
{ "type": "Feature", "properties": { "name": "Lipnița", "waiting_time_min": null, "direction": null }, "geometry": { "type": "Point", "coordinates": [ 27.581, 44.094 ] } },
{ "type": "Feature", "properties": { "name": "Dobromir", "waiting_time_min": null, "direction": null }, "geometry": { "type": "Point", "coordinates": [ 27.789, 43.986 ] } },
{ "type": "Feature", "properties": { "name": "Bechet", "waiting_time_min": null, "direction": null }, "geometry": { "type": "Point", "coordinates": [ 23.957, 43.781 ] } },
{ "type": "Feature", "properties": { "name": "Calafat", "waiting_time_min": null, "direction": null }, "geometry": { "type": "Point", "coordinates": [ 22.9435, 43.9895 ] } },
{ "type": "Feature", "properties": { "name": "Călărași", "waiting_time_min": null, "direction": null }, "geometry": { "type": "Point", "coordinates": [ 27.313, 44.163 ] } },
{ "type": "Feature", "properties": { "name": "Zimnicea", "waiting_time_min": null, "direction": null }, "geometry": { "type": "Point", "coordinates": [ 25.37, 43.635 ] } },
{ "type": "Feature", "properties": { "name": "Turnu Măgurele", "waiting_time_min": null, "direction": null }, "geometry": { "type": "Point", "coordinates": [ 24.878, 43.72 ] } },
{ "type": "Feature", "properties": { "name": "Giurgiu", "waiting_time_min": null, "direction": null }, "geometry": { "type": "Point", "coordinates": [ 26.0038, 43.8875 ] } },
{ "type": "Feature", "properties": { "name": "Negru Vodă", "waiting_time_min": null, "direction": null }, "geometry": { "type": "Point", "coordinates": [ 28.202, 43.801 ] } },
{ "type": "Feature", "properties": { "name": "Calafat", "waiting_time_min": null, "direction": null }, "geometry": { "type": "Point", "coordinates": [ 22.9435, 43.9895 ] } },
{ "type": "Feature", "properties": { "name": "Călărași", "waiting_time_min": null, "direction": null }, "geometry": { "type": "Point", "coordinates": [ 27.313, 44.163 ] } },
{ "type": "Feature", "properties": { "name": "Oltenița", "waiting_time_min": null, "direction": null }, "geometry": { "type": "Point", "coordinates": [ 26.636, 44.078 ] } },
{ "type": "Feature", "properties": { "name": "Giurgiu", "waiting_time_min": null, "direction": null }, "geometry": { "type": "Point", "coordinates": [ 26.0038, 43.8875 ] } },
{ "type": "Feature", "properties": { "name": "Zimnicea", "waiting_time_min": null, "direction": null }, "geometry": { "type": "Point", "coordinates": [ 25.37, 43.635 ] } },
{ "type": "Feature", "properties": { "name": "Turnu Măgurele", "waiting_time_min": null, "direction": null }, "geometry": { "type": "Point", "coordinates": [ 24.878, 43.72 ] } },
{ "type": "Feature", "properties": { "name": "Corabia", "waiting_time_min": null, "direction": null }, "geometry": { "type": "Point", "coordinates": [ 24.507, 43.775 ] } },
{ "type": "Feature", "properties": { "name": "Bechet", "waiting_time_min": null, "direction": null }, "geometry": { "type": "Point", "coordinates": [ 23.957, 43.781 ] } },
{ "type": "Feature", "properties": { "name": "Nădlac", "waiting_time_min": null, "direction": null }, "geometry": { "type": "Point", "coordinates": [ 20.7515, 46.168 ] } },
{ "type": "Feature", "properties": { "name": "Nădlac II", "waiting_time_min": null, "direction": null }, "geometry": { "type": "Point", "coordinates": [ 20.6995, 46.166 ] } },
{ "type": "Feature", "properties": { "name": "Turnu", "waiting_time_min": null, "direction": null }, "geometry": { "type": "Point", "coordinates": [ 21.1265, 46.257 ] } },
{ "type": "Feature", "properties": { "name": "Vărșand", "waiting_time_min": null, "direction": null }, "geometry": { "type": "Point", "coordinates": [ 21.344, 46.619 ] } },
{ "type": "Feature", "properties": { "name": "Salonta", "waiting_time_min": null, "direction": null }, "geometry": { "type": "Point", "coordinates": [ 21.653, 46.801 ] } },
{ "type": "Feature", "properties": { "name": "Borș", "waiting_time_min": null, "direction": null }, "geometry": { "type": "Point", "coordinates": [ 21.8145, 47.1165 ] } },
{ "type": "Feature", "properties": { "name": "Borș II", "waiting_time_min": null, "direction": null }, "geometry": { "type": "Point", "coordinates": [ 21.7775, 47.0705 ] } },
{ "type": "Feature", "properties": { "name": "Valea lui Mihai", "waiting_time_min": null, "direction": null }, "geometry": { "type": "Point", "coordinates": [ 22.126, 47.5255 ] } },
{ "type": "Feature", "properties": { "name": "Săcuieni", "waiting_time_min": null, "direction": null }, "geometry": { "type": "Point", "coordinates": [ 22.092, 47.3545 ] } },
{ "type": "Feature", "properties": { "name": "Petea", "waiting_time_min": null, "direction": null }, "geometry": { "type": "Point", "coordinates": [ 22.8369, 47.995 ] } },
{ "type": "Feature", "properties": { "name": "Urziceni", "waiting_time_min": null, "direction": null }, "geometry": { "type": "Point", "coordinates": [ 22.405, 47.7325 ] } },
{ "type": "Feature", "properties": { "name": "Cenad", "waiting_time_min": null, "direction": null }, "geometry": { "type": "Point", "coordinates": [ 20.5855, 46.1355 ] } },
{ "type": "Feature", "properties": { "name": "Carei", "waiting_time_min": null, "direction": null }, "geometry": { "type": "Point", "coordinates": [ 22.3295, 47.6798 ] } },
{ "type": "Feature", "properties": { "name": "Curtici", "waiting_time_min": null, "direction": null }, "geometry": { "type": "Point", "coordinates": [ 21.3035, 46.3575 ] } },
{ "type": "Feature", "properties": { "name": "Salonta", "waiting_time_min": null, "direction": null }, "geometry": { "type": "Point", "coordinates": [ 21.653, 46.801 ] } },
{ "type": "Feature", "properties": { "name": "Episcopia Bihor", "waiting_time_min": null, "direction": null }, "geometry": { "type": "Point", "coordinates": [ 21.8195, 47.1095 ] } },
{ "type": "Feature", "properties": { "name": "Valea lui Mihai", "waiting_time_min": null, "direction": null }, "geometry": { "type": "Point", "coordinates": [ 22.126, 47.5255 ] } },
{ "type": "Feature", "properties": { "name": "Cernavodă", "waiting_time_min": null, "direction": null }, "geometry": { "type": "Point", "coordinates": [ 28.0325, 44.34 ] } },
{ "type": "Feature", "properties": { "name": "Brăila", "waiting_time_min": null, "direction": null }, "geometry": { "type": "Point", "coordinates": [ 27.97, 45.27 ] } }
]
}
